CCSDS_OMM_VERS = 2.0
CREATION_DATE  = 
ORIGINATOR     = 

OBJECT_NAME    = STARLINK-36931
OBJECT_ID      = 2026-039Q
CENTER_NAME    = EARTH
REF_FRAME      = TEME
TIME_SYSTEM    = UTC
MEAN_ELEMENT_THEORY = SGP/SGP4

EPOCH          = 2026-03-24T06:00:02.000160
MEAN_MOTION    = 15.50549624
ECCENTRICITY   = .000194
INCLINATION    = 43.0000
RA_OF_ASC_NODE = 327.2143
ARG_OF_PERICENTER = 281.2077
MEAN_ANOMALY   = 100.1963

EPHEMERIS_TYPE = 0
CLASSIFICATION_TYPE = U
NORAD_CAT_ID   = 68000
ELEMENT_SET_NO = 999
REV_AT_EPOCH   = 521
BSTAR          = .91697359E-3
MEAN_MOTION_DOT = .53768E-3
MEAN_MOTION_DDOT = 0

CCSDS_OMM_VERS = 2.0
CREATION_DATE  = 
ORIGINATOR     = 

OBJECT_NAME    = STARLINK-36903
OBJECT_ID      = 2026-039R
CENTER_NAME    = EARTH
REF_FRAME      = TEME
TIME_SYSTEM    = UTC
MEAN_ELEMENT_THEORY = SGP/SGP4

EPOCH          = 2026-03-24T06:00:02.000160
MEAN_MOTION    = 15.45606588
ECCENTRICITY   = .00013307
INCLINATION    = 43.0000
RA_OF_ASC_NODE = 327.5104
ARG_OF_PERICENTER = 251.4020
MEAN_ANOMALY   = 10.8465

EPHEMERIS_TYPE = 0
CLASSIFICATION_TYPE = U
NORAD_CAT_ID   = 68001
ELEMENT_SET_NO = 999
REV_AT_EPOCH   = 521
BSTAR          = -.41827818E-1
MEAN_MOTION_DOT = -.1855189E-1
MEAN_MOTION_DDOT = 0

CCSDS_OMM_VERS = 2.0
CREATION_DATE  = 
ORIGINATOR     = 

OBJECT_NAME    = STARLINK-36898
OBJECT_ID      = 2026-039S
CENTER_NAME    = EARTH
REF_FRAME      = TEME
TIME_SYSTEM    = UTC
MEAN_ELEMENT_THEORY = SGP/SGP4

EPOCH          = 2026-03-24T06:00:02.000160
MEAN_MOTION    = 15.44132029
ECCENTRICITY   = .00018546
INCLINATION    = 42.9992
RA_OF_ASC_NODE = 327.3022
ARG_OF_PERICENTER = 258.1871
MEAN_ANOMALY   = 87.8467

EPHEMERIS_TYPE = 0
CLASSIFICATION_TYPE = U
NORAD_CAT_ID   = 68002
ELEMENT_SET_NO = 999
REV_AT_EPOCH   = 521
BSTAR          = -.45520946E-1
MEAN_MOTION_DOT = -.1912672E-1
MEAN_MOTION_DDOT = 0

CCSDS_OMM_VERS = 2.0
CREATION_DATE  = 
ORIGINATOR     = 

OBJECT_NAME    = STARLINK-36862
OBJECT_ID      = 2026-039T
CENTER_NAME    = EARTH
REF_FRAME      = TEME
TIME_SYSTEM    = UTC
MEAN_ELEMENT_THEORY = SGP/SGP4

EPOCH          = 2026-03-24T06:00:02.000160
MEAN_MOTION    = 15.42708498
ECCENTRICITY   = .00015078
INCLINATION    = 42.9997
RA_OF_ASC_NODE = 327.4443
ARG_OF_PERICENTER = 256.9250
MEAN_ANOMALY   = 31.3683

EPHEMERIS_TYPE = 0
CLASSIFICATION_TYPE = U
NORAD_CAT_ID   = 68003
ELEMENT_SET_NO = 999
REV_AT_EPOCH   = 521
BSTAR          = -.4643032E-1
MEAN_MOTION_DOT = -.1863655E-1
MEAN_MOTION_DDOT = 0

CCSDS_OMM_VERS = 2.0
CREATION_DATE  = 
ORIGINATOR     = 

OBJECT_NAME    = STARLINK-36888
OBJECT_ID      = 2026-039U
CENTER_NAME    = EARTH
REF_FRAME      = TEME
TIME_SYSTEM    = UTC
MEAN_ELEMENT_THEORY = SGP/SGP4

EPOCH          = 2026-03-24T06:00:02.000160
MEAN_MOTION    = 15.43588599
ECCENTRICITY   = .00014735
INCLINATION    = 43.0001
RA_OF_ASC_NODE = 327.4856
ARG_OF_PERICENTER = 258.7421
MEAN_ANOMALY   = 13.4660

EPHEMERIS_TYPE = 0
CLASSIFICATION_TYPE = U
NORAD_CAT_ID   = 68004
ELEMENT_SET_NO = 999
REV_AT_EPOCH   = 521
BSTAR          = -.4527028E-1
MEAN_MOTION_DOT = -.187148E-1
MEAN_MOTION_DDOT = 0

CCSDS_OMM_VERS = 2.0
CREATION_DATE  = 
ORIGINATOR     = 

OBJECT_NAME    = STARLINK-36910
OBJECT_ID      = 2026-039V
CENTER_NAME    = EARTH
REF_FRAME      = TEME
TIME_SYSTEM    = UTC
MEAN_ELEMENT_THEORY = SGP/SGP4

EPOCH          = 2026-03-24T06:00:02.000160
MEAN_MOTION    = 15.43531590
ECCENTRICITY   = .00017294
INCLINATION    = 42.9989
RA_OF_ASC_NODE = 327.2209
ARG_OF_PERICENTER = 264.7502
MEAN_ANOMALY   = 113.8960

EPHEMERIS_TYPE = 0
CLASSIFICATION_TYPE = U
NORAD_CAT_ID   = 68005
ELEMENT_SET_NO = 999
REV_AT_EPOCH   = 521
BSTAR          = -.47002433E-1
MEAN_MOTION_DOT = -.1932385E-1
MEAN_MOTION_DDOT = 0

CCSDS_OMM_VERS = 2.0
CREATION_DATE  = 
ORIGINATOR     = 

OBJECT_NAME    = STARLINK-36889
OBJECT_ID      = 2026-039W
CENTER_NAME    = EARTH
REF_FRAME      = TEME
TIME_SYSTEM    = UTC
MEAN_ELEMENT_THEORY = SGP/SGP4

EPOCH          = 2026-03-24T00:00:02.000160
MEAN_MOTION    = 15.50514720
ECCENTRICITY   = .00011906
INCLINATION    = 43.0002
RA_OF_ASC_NODE = 328.9620
ARG_OF_PERICENTER = 282.1809
MEAN_ANOMALY   = 26.8626

EPHEMERIS_TYPE = 0
CLASSIFICATION_TYPE = U
NORAD_CAT_ID   = 68006
ELEMENT_SET_NO = 999
REV_AT_EPOCH   = 517
BSTAR          = .1524737E-2
MEAN_MOTION_DOT = .89934E-3
MEAN_MOTION_DDOT = 0

CCSDS_OMM_VERS = 2.0
CREATION_DATE  = 
ORIGINATOR     = 

OBJECT_NAME    = STARLINK-36592
OBJECT_ID      = 2026-039X
CENTER_NAME    = EARTH
REF_FRAME      = TEME
TIME_SYSTEM    = UTC
MEAN_ELEMENT_THEORY = SGP/SGP4

EPOCH          = 2026-03-24T06:00:02.000160
MEAN_MOTION    = 15.47350089
ECCENTRICITY   = .0001736
INCLINATION    = 42.9998
RA_OF_ASC_NODE = 327.2059
ARG_OF_PERICENTER = 266.1875
MEAN_ANOMALY   = 118.2993

EPHEMERIS_TYPE = 0
CLASSIFICATION_TYPE = U
NORAD_CAT_ID   = 68007
ELEMENT_SET_NO = 999
REV_AT_EPOCH   = 521
BSTAR          = -.40993608E-1
MEAN_MOTION_DOT = -.1924444E-1
MEAN_MOTION_DDOT = 0

CCSDS_OMM_VERS = 2.0
CREATION_DATE  = 
ORIGINATOR     = 

OBJECT_NAME    = STARLINK-36911
OBJECT_ID      = 2026-039Y
CENTER_NAME    = EARTH
REF_FRAME      = TEME
TIME_SYSTEM    = UTC
MEAN_ELEMENT_THEORY = SGP/SGP4

EPOCH          = 2026-03-24T06:00:02.000160
MEAN_MOTION    = 15.51021548
ECCENTRICITY   = .00020391
INCLINATION    = 42.9998
RA_OF_ASC_NODE = 327.2834
ARG_OF_PERICENTER = 275.2360
MEAN_ANOMALY   = 77.3025

EPHEMERIS_TYPE = 0
CLASSIFICATION_TYPE = U
NORAD_CAT_ID   = 68008
ELEMENT_SET_NO = 999
REV_AT_EPOCH   = 521
BSTAR          = -.29503928E-1
MEAN_MOTION_DOT = -.1584025E-1
MEAN_MOTION_DDOT = 0

CCSDS_OMM_VERS = 2.0
CREATION_DATE  = 
ORIGINATOR     = 

OBJECT_NAME    = STARLINK-36956
OBJECT_ID      = 2026-039Z
CENTER_NAME    = EARTH
REF_FRAME      = TEME
TIME_SYSTEM    = UTC
MEAN_ELEMENT_THEORY = SGP/SGP4

EPOCH          = 2026-03-24T06:00:02.000160
MEAN_MOTION    = 15.50610028
ECCENTRICITY   = .00021618
INCLINATION    = 43.0001
RA_OF_ASC_NODE = 327.3502
ARG_OF_PERICENTER = 273.9122
MEAN_ANOMALY   = 51.7961

EPHEMERIS_TYPE = 0
CLASSIFICATION_TYPE = U
NORAD_CAT_ID   = 68009
ELEMENT_SET_NO = 999
REV_AT_EPOCH   = 521
BSTAR          = -.11717978E-3
MEAN_MOTION_DOT = -.7218E-4
MEAN_MOTION_DDOT = 0

CCSDS_OMM_VERS = 2.0
CREATION_DATE  = 
ORIGINATOR     = 

OBJECT_NAME    = STARLINK-36953
OBJECT_ID      = 2026-039AA
CENTER_NAME    = EARTH
REF_FRAME      = TEME
TIME_SYSTEM    = UTC
MEAN_ELEMENT_THEORY = SGP/SGP4

EPOCH          = 2026-03-24T06:00:02.000160
MEAN_MOTION    = 15.45916731
ECCENTRICITY   = .00011876
INCLINATION    = 42.9988
RA_OF_ASC_NODE = 326.8561
ARG_OF_PERICENTER = 271.8545
MEAN_ANOMALY   = 254.1480

EPHEMERIS_TYPE = 0
CLASSIFICATION_TYPE = U
NORAD_CAT_ID   = 68010
ELEMENT_SET_NO = 999
REV_AT_EPOCH   = 521
BSTAR          = -.42805107E-1
MEAN_MOTION_DOT = -.191246E-1
MEAN_MOTION_DDOT = 0

CCSDS_OMM_VERS = 2.0
CREATION_DATE  = 
ORIGINATOR     = 

OBJECT_NAME    = STARLINK-36991
OBJECT_ID      = 2026-039AB
CENTER_NAME    = EARTH
REF_FRAME      = TEME
TIME_SYSTEM    = UTC
MEAN_ELEMENT_THEORY = SGP/SGP4

EPOCH          = 2026-03-23T09:40:56.519616
MEAN_MOTION    = 15.50643100
ECCENTRICITY   = .00024585
INCLINATION    = 42.9999
RA_OF_ASC_NODE = 332.9770
ARG_OF_PERICENTER = 277.1227
MEAN_ANOMALY   = 82.9353

EPHEMERIS_TYPE = 0
CLASSIFICATION_TYPE = U
NORAD_CAT_ID   = 68011
ELEMENT_SET_NO = 999
REV_AT_EPOCH   = 378
BSTAR          = .10955133E-2
MEAN_MOTION_DOT = .6461E-3
MEAN_MOTION_DDOT = 0

