STARLINK-36931          
1 68000U 26039Q   26083.25002315  .00053768  00000+0  91697-3 0  9994
2 68000  43.0000 327.2143 0001940 281.2077 100.1963 15.50549624  5215
STARLINK-36903          
1 68001U 26039R   26083.25002315 -.01855189  00000+0 -41828-1 0  9994
2 68001  43.0000 327.5104 0001330 251.4020  10.8465 15.45606588  5217
STARLINK-36898          
1 68002U 26039S   26083.25002315 -.01912672  00000+0 -45521-1 0  9990
2 68002  42.9992 327.3022 0001854 258.1871  87.8467 15.44132029  5211
STARLINK-36862          
1 68003U 26039T   26083.25002315 -.01863655  00000+0 -46430-1 0  9997
2 68003  42.9997 327.4443 0001507 256.9250  31.3683 15.42708498  5218
STARLINK-36888          
1 68004U 26039U   26083.25002315 -.01871480  00000+0 -45270-1 0  9994
2 68004  43.0001 327.4856 0001473 258.7421  13.4660 15.43588599  5212
STARLINK-36910          
1 68005U 26039V   26083.25002315 -.01932385  00000+0 -47002-1 0  9992
2 68005  42.9989 327.2209 0001729 264.7502 113.8960 15.43531590  5214
STARLINK-36889          
1 68006U 26039W   26083.00002315  .00089934  00000+0  15247-2 0  9993
2 68006  43.0002 328.9620 0001190 282.1809  26.8626 15.50514720  5175
STARLINK-36592          
1 68007U 26039X   26083.25002315 -.01924444  00000+0 -40994-1 0  9994
2 68007  42.9998 327.2059 0001736 266.1875 118.2993 15.47350089  5217
STARLINK-36911          
1 68008U 26039Y   26083.25002315 -.01584025  00000+0 -29504-1 0  9996
2 68008  42.9998 327.2834 0002039 275.2360  77.3025 15.51021548  5217
STARLINK-36956          
1 68009U 26039Z   26083.25002315 -.00007218  00000+0 -11718-3 0  9990
2 68009  43.0001 327.3502 0002161 273.9122  51.7961 15.50610028  5216
STARLINK-36953          
1 68010U 26039AA  26083.25002315 -.01912460  00000+0 -42805-1 0  9996
2 68010  42.9988 326.8561 0001187 271.8545 254.1480 15.45916731  5211
STARLINK-36991          
1 68011U 26039AB  26082.40343194  .00064610  00000+0  10955-2 0  9990
2 68011  42.9999 332.9770 0002458 277.1227  82.9353 15.50643100  3781
